[{"zip_code": "0 717", "address": "Danielsenekra 82", "longitude": 10.750469526215738, "id": 1, "created": "2015-01-24T17:42:40.216554Z", "latitude": 59.81085611922732, "city": "Oslo"}, {"zip_code": "0 528", "address": "Alistubben 9", "longitude": 10.697942584785547, "id": 2, "created": "2015-02-02T17:51:57.216554Z", "latitude": 59.9040811041533, "city": "Oslo"}, {"zip_code": "0 723", "address": "Brekkeringen 5", "longitude": 10.888558225665593, "id": 3, "created": "2015-01-21T17:37:30.216554Z", "latitude": 59.92500280120626, "city": "Oslo"}, {"zip_code": "0 842", "address": "Arnesenall\u00e9en 13", "longitude": 10.654915421347152, "id": 4, "created": "2015-01-19T17:15:31.216554Z", "latitude": 59.9074757976483, "city": "Oslo"}, {"zip_code": "0 797", "address": "Isaksenr\u00f8a 01", "longitude": 10.7873046488241, "id": 5, "created": "2015-02-02T16:58:44.216554Z", "latitude": 59.763144655794015, "city": "Oslo"}, {"zip_code": "01154", "address": "Engenall\u00e9en 89", "longitude": 10.883686861339825, "id": 6, "created": "2015-02-06T17:34:31.216554Z", "latitude": 59.828926119052674, "city": "Oslo"}, {"zip_code": "0 444", "address": "Christensenall\u00e9en 1", "longitude": 10.72407186275179, "id": 7, "created": "2015-01-29T17:28:45.216554Z", "latitude": 59.86078291219186, "city": "Oslo"}, {"zip_code": "0   3", "address": "Nilsenbakken 44", "longitude": 10.676396099971008, "id": 8, "created": "2015-01-16T17:44:20.216554Z", "latitude": 59.88112722669595, "city": "Oslo"}, {"zip_code": "01286", "address": "Kristiansengropa 04", "longitude": 10.922296598968705, "id": 9, "created": "2015-01-21T17:22:57.216554Z", "latitude": 59.85250228884521, "city": "Oslo"}, {"zip_code": "0 936", "address": "Jenssenskogen 02", "longitude": 10.756383651504905, "id": 10, "created": "2015-01-11T17:11:47.216554Z", "latitude": 59.80135545905925, "city": "Oslo"}, {"zip_code": "0  43", "address": "Sandviktoppen 4", "longitude": 10.890382825239815, "id": 11, "created": "2015-01-24T16:58:25.216554Z", "latitude": 59.883709887178284, "city": "Oslo"}, {"zip_code": "0 582", "address": "Haugeholtet 3", "longitude": 10.758501078429912, "id": 12, "created": "2015-01-24T17:49:51.216554Z", "latitude": 59.905425931073026, "city": "Oslo"}, {"zip_code": "01206", "address": "Svendsentunet 6", "longitude": 10.819795936300304, "id": 13, "created": "2015-01-31T16:57:32.216554Z", "latitude": 59.93537093367162, "city": "Oslo"}, {"zip_code": "0 204", "address": "Dahlr\u00f8a 2", "longitude": 10.858838333580014, "id": 14, "created": "2015-01-22T17:08:09.216554Z", "latitude": 59.93406826053818, "city": "Oslo"}, {"zip_code": "0 261", "address": "Moestykket 20", "longitude": 10.87978724881384, "id": 15, "created": "2015-02-01T17:50:03.216554Z", "latitude": 59.891654418751955, "city": "Oslo"}, {"zip_code": "0 592", "address": "Eideekra 8", "longitude": 10.79357771820603, "id": 16, "created": "2015-01-20T17:53:21.216554Z", "latitude": 59.76135440954474, "city": "Oslo"}, {"zip_code": "0 796", "address": "Kristiansensvingen 93", "longitude": 10.916970684164388, "id": 17, "created": "2015-01-10T17:22:43.216554Z", "latitude": 59.904928488471356, "city": "Oslo"}, {"zip_code": "0 741", "address": "Danielsenh\u00f8gda 47", "longitude": 10.856414535268714, "id": 18, "created": "2015-02-07T17:49:31.216554Z", "latitude": 59.87261523152356, "city": "Oslo"}, {"zip_code": "0  30", "address": "Edvardsentunet 6", "longitude": 10.798807693715728, "id": 19, "created": "2015-01-24T17:12:03.216554Z", "latitude": 59.87086335593477, "city": "Oslo"}, {"zip_code": "0 771", "address": "Moegropa 65", "longitude": 10.783931171494041, "id": 20, "created": "2015-01-19T17:04:14.216554Z", "latitude": 59.94149624977929, "city": "Oslo"}, {"zip_code": "0 228", "address": "Bakkegata 6", "longitude": 10.857475793513789, "id": 21, "created": "2015-02-04T17:34:16.216554Z", "latitude": 59.95489904196697, "city": "Oslo"}, {"zip_code": "0  53", "address": "Moeall\u00e9en 24", "longitude": 10.730496631539504, "id": 22, "created": "2015-02-01T17:13:56.216554Z", "latitude": 59.98171155294832, "city": "Oslo"}, {"zip_code": "0 288", "address": "Hagenmoen 5", "longitude": 10.760069630020759, "id": 23, "created": "2015-02-03T17:39:46.216554Z", "latitude": 59.97378464342752, "city": "Oslo"}, {"zip_code": "01295", "address": "Gundersensvingen 91", "longitude": 10.773872073809995, "id": 24, "created": "2015-02-07T17:30:25.216554Z", "latitude": 59.95223156515938, "city": "Oslo"}, {"zip_code": "01124", "address": "N\u00e6ssgjerdet 4", "longitude": 10.686301871954212, "id": 25, "created": "2015-01-15T17:33:07.216554Z", "latitude": 60.027275724949256, "city": "Oslo"}, {"zip_code": "01134", "address": "Myhregjerdet 9", "longitude": 10.682255556836456, "id": 26, "created": "2015-02-07T17:11:22.216554Z", "latitude": 59.799921343940724, "city": "Oslo"}, {"zip_code": "0 245", "address": "Svendsenmyra 5", "longitude": 10.814006140982354, "id": 27, "created": "2015-02-02T17:39:01.216554Z", "latitude": 59.92343107574679, "city": "Oslo"}, {"zip_code": "0 766", "address": "Mikkelsenstubben 77", "longitude": 10.982039533315618, "id": 28, "created": "2015-01-30T17:45:07.216554Z", "latitude": 59.872461674316234, "city": "Oslo"}, {"zip_code": "0 731", "address": "Aasgata 06", "longitude": 10.745657930048917, "id": 29, "created": "2015-01-26T17:12:51.216554Z", "latitude": 59.88847489713715, "city": "Oslo"}, {"zip_code": "0 317", "address": "Kristensenl\u00f8kka 40", "longitude": 10.826786629259967, "id": 30, "created": "2015-02-04T17:26:01.216554Z", "latitude": 59.77018412507043, "city": "Oslo"}, {"zip_code": "0 149", "address": "Moemyra 05", "longitude": 10.801631628593091, "id": 31, "created": "2015-01-20T17:29:15.216554Z", "latitude": 59.870803134617475, "city": "Oslo"}, {"zip_code": "01211", "address": "Aasskrenten 18", "longitude": 10.881431273526315, "id": 32, "created": "2015-01-13T17:33:40.216554Z", "latitude": 60.08479566609387, "city": "Oslo"}, {"zip_code": "0 523", "address": "Tveithagen 3", "longitude": 10.868942195999432, "id": 33, "created": "2015-01-20T16:58:19.216554Z", "latitude": 59.9190380828696, "city": "Oslo"}, {"zip_code": "0 251", "address": "Arnesenmyra 19", "longitude": 10.783457321395117, "id": 34, "created": "2015-01-29T17:07:22.216554Z", "latitude": 59.71717602310652, "city": "Oslo"}, {"zip_code": "0 893", "address": "\u00f8deg\u00e5rdringen 46", "longitude": 10.802914174368427, "id": 35, "created": "2015-01-29T17:37:34.216554Z", "latitude": 59.81248514349004, "city": "Oslo"}, {"zip_code": "0 434", "address": "Johnsenjordet 7", "longitude": 10.755828967058878, "id": 36, "created": "2015-01-13T17:29:21.216554Z", "latitude": 59.79370565478384, "city": "Oslo"}, {"zip_code": "0 789", "address": "Sandvikengen 7", "longitude": 10.81687591518235, "id": 37, "created": "2015-01-29T17:29:43.216554Z", "latitude": 60.04235315607443, "city": "Oslo"}, {"zip_code": "0 256", "address": "Bergskrenten 2", "longitude": 10.828265219249795, "id": 38, "created": "2015-01-27T17:07:09.216554Z", "latitude": 59.90039730299872, "city": "Oslo"}, {"zip_code": "0 897", "address": "Karlsenstubben 7", "longitude": 10.836090872743931, "id": 39, "created": "2015-02-07T17:24:47.216554Z", "latitude": 59.94756739708471, "city": "Oslo"}, {"zip_code": "0 313", "address": "Pedersenroa 46", "longitude": 10.909357712983615, "id": 40, "created": "2015-01-17T17:47:56.216554Z", "latitude": 59.854664905029495, "city": "Oslo"}, {"zip_code": "0 910", "address": "Gundersenekra 65", "longitude": 10.842591671170728, "id": 41, "created": "2015-01-27T17:50:19.216554Z", "latitude": 59.9996609989244, "city": "Oslo"}, {"zip_code": "0  28", "address": "Strandmarka 3", "longitude": 10.697914287309471, "id": 42, "created": "2015-01-10T17:29:28.216554Z", "latitude": 59.817050568840294, "city": "Oslo"}, {"zip_code": "0 654", "address": "\u00f8deg\u00e5rdlyngen 46", "longitude": 10.781400661944087, "id": 43, "created": "2015-02-06T17:45:33.216554Z", "latitude": 59.93894265820016, "city": "Oslo"}, {"zip_code": "0 696", "address": "Ellingsen\u00e5sen 6", "longitude": 10.775248913590065, "id": 44, "created": "2015-01-28T17:28:45.216554Z", "latitude": 60.06097767282091, "city": "Oslo"}, {"zip_code": "0 360", "address": "Isaksenstranda 32", "longitude": 10.684400776777492, "id": 45, "created": "2015-02-04T17:18:23.216554Z", "latitude": 59.95188014264573, "city": "Oslo"}, {"zip_code": "0 326", "address": "Nielsenh\u00f8gda 6", "longitude": 10.955243621247893, "id": 46, "created": "2015-01-15T17:19:18.216554Z", "latitude": 59.89468209141441, "city": "Oslo"}, {"zip_code": "0 570", "address": "Aasenbakken 5", "longitude": 10.878295085804973, "id": 47, "created": "2015-01-16T17:36:21.216554Z", "latitude": 60.007710530538496, "city": "Oslo"}, {"zip_code": "0 859", "address": "Hansenstien 63", "longitude": 10.64684943124479, "id": 48, "created": "2015-01-14T17:04:37.216554Z", "latitude": 59.84783804390579, "city": "Oslo"}, {"zip_code": "0 143", "address": "Aliholtet 07", "longitude": 10.741359494056306, "id": 49, "created": "2015-01-26T16:59:06.216554Z", "latitude": 59.791482139530295, "city": "Oslo"}, {"zip_code": "0 565", "address": "Nguyen\u00e5sen 8", "longitude": 10.62585838630036, "id": 50, "created": "2015-01-25T16:55:09.216554Z", "latitude": 60.01294184084101, "city": "Oslo"}, {"zip_code": "0 700", "address": "Dahlspranget 2", "longitude": 10.857158865570263, "id": 51, "created": "2015-01-20T17:35:00.216554Z", "latitude": 59.87896107035641, "city": "Oslo"}, {"zip_code": "01052", "address": "Henriksenstubben 2", "longitude": 10.792176423497276, "id": 52, "created": "2015-01-12T17:52:02.216554Z", "latitude": 60.05222869428947, "city": "Oslo"}, {"zip_code": "0 444", "address": "Abrahamsenspranget 7", "longitude": 10.791045965731701, "id": 53, "created": "2015-01-31T17:53:14.216554Z", "latitude": 59.916561851785346, "city": "Oslo"}, {"zip_code": "0 916", "address": "Andresenmyra 5", "longitude": 10.843295301112656, "id": 54, "created": "2015-01-23T17:50:35.216554Z", "latitude": 59.86756929826294, "city": "Oslo"}, {"zip_code": "0 627", "address": "Hagenkroken 3", "longitude": 10.89080564189504, "id": 55, "created": "2015-01-21T17:00:47.216554Z", "latitude": 59.974059416326845, "city": "Oslo"}, {"zip_code": "0 497", "address": "Vikhagen 8", "longitude": 10.935325521458179, "id": 56, "created": "2015-02-02T17:54:23.216554Z", "latitude": 59.95792218677372, "city": "Oslo"}, {"zip_code": "0 859", "address": "Thomassengropa 50", "longitude": 10.724481408074041, "id": 57, "created": "2015-02-06T17:50:38.216554Z", "latitude": 59.77884416020388, "city": "Oslo"}, {"zip_code": "01129", "address": "B\u00f8eflata 9", "longitude": 10.743925989400473, "id": 58, "created": "2015-01-27T17:52:30.216554Z", "latitude": 59.99154030932708, "city": "Oslo"}, {"zip_code": "0 973", "address": "Johansenstien 30", "longitude": 10.931650323064844, "id": 59, "created": "2015-02-02T17:00:36.216554Z", "latitude": 59.83354943670548, "city": "Oslo"}, {"zip_code": "0 590", "address": "Holmtunet 4", "longitude": 10.769178260719128, "id": 60, "created": "2015-01-17T17:11:54.216554Z", "latitude": 59.93067040515582, "city": "Oslo"}, {"zip_code": "0 616", "address": "J\u00f8rgensenvika 29", "longitude": 10.826189096402906, "id": 61, "created": "2015-01-25T17:24:34.216554Z", "latitude": 59.94469065674821, "city": "Oslo"}, {"zip_code": "01023", "address": "Iversengata 6", "longitude": 10.733697257456388, "id": 62, "created": "2015-01-19T17:00:39.216554Z", "latitude": 59.87952745785724, "city": "Oslo"}, {"zip_code": "0 629", "address": "Vikringen 6", "longitude": 10.861661631563852, "id": 63, "created": "2015-01-08T16:59:13.216554Z", "latitude": 59.9563925661571, "city": "Oslo"}, {"zip_code": "0 676", "address": "Amundsensvingen 6", "longitude": 10.750856268710676, "id": 64, "created": "2015-01-23T16:58:03.216554Z", "latitude": 59.84520596369919, "city": "Oslo"}, {"zip_code": "0 704", "address": "Nielsenhavna 75", "longitude": 10.701369088488887, "id": 65, "created": "2015-01-13T17:22:09.216554Z", "latitude": 59.77131745677761, "city": "Oslo"}, {"zip_code": "0 762", "address": "Eriksenvollen 5", "longitude": 10.751294500824164, "id": 66, "created": "2015-01-25T17:23:26.216554Z", "latitude": 59.87285158988781, "city": "Oslo"}, {"zip_code": "0 358", "address": "Evensenhaugen 84", "longitude": 10.894748995869103, "id": 67, "created": "2015-01-14T17:01:59.216554Z", "latitude": 59.78368204087322, "city": "Oslo"}, {"zip_code": "01046", "address": "Rasmussentoppen 1", "longitude": 10.836747429849286, "id": 68, "created": "2015-01-20T17:01:48.216554Z", "latitude": 59.903999403655874, "city": "Oslo"}, {"zip_code": "0 409", "address": "Birkelandfaret 8", "longitude": 10.73271329712426, "id": 69, "created": "2015-01-22T17:45:46.216554Z", "latitude": 59.920171183790124, "city": "Oslo"}, {"zip_code": "01009", "address": "Auneall\u00e9en 8", "longitude": 10.616401626141807, "id": 70, "created": "2015-01-20T17:15:57.216554Z", "latitude": 59.88801882509594, "city": "Oslo"}, {"zip_code": "0 573", "address": "Kristiansengrenda 56", "longitude": 10.861751725389434, "id": 71, "created": "2015-02-05T17:19:14.216554Z", "latitude": 59.772316099282875, "city": "Oslo"}, {"zip_code": "0 240", "address": "Johannessentoppen 26", "longitude": 10.891435318723783, "id": 72, "created": "2015-01-31T17:41:10.216554Z", "latitude": 60.02689738447486, "city": "Oslo"}, {"zip_code": "0 290", "address": "Vikmarka 28", "longitude": 10.917400017543962, "id": 73, "created": "2015-01-25T17:09:30.216554Z", "latitude": 59.99025692858032, "city": "Oslo"}, {"zip_code": "01287", "address": "Solbergmoen 68", "longitude": 10.925467169081472, "id": 74, "created": "2015-01-31T17:14:20.216554Z", "latitude": 59.8797632812834, "city": "Oslo"}, {"zip_code": "01001", "address": "Hanssenringen 6", "longitude": 10.89754618364203, "id": 75, "created": "2015-01-16T17:32:46.216554Z", "latitude": 60.06062701753321, "city": "Oslo"}, {"zip_code": "0 914", "address": "Solheimberget 52", "longitude": 10.679513457179313, "id": 76, "created": "2015-01-14T17:03:16.216554Z", "latitude": 59.939289546705275, "city": "Oslo"}, {"zip_code": "0 714", "address": "S\u00f8rensenringen 1", "longitude": 10.755317326757478, "id": 77, "created": "2015-01-17T17:05:08.216554Z", "latitude": 59.855087122373355, "city": "Oslo"}, {"zip_code": "0 437", "address": "Brekkehavna 9", "longitude": 10.940273589276934, "id": 78, "created": "2015-02-07T17:53:00.216554Z", "latitude": 59.78128701073896, "city": "Oslo"}, {"zip_code": "0 651", "address": "Mikkelsenkroken 7", "longitude": 10.728149112659944, "id": 79, "created": "2015-01-30T17:33:07.216554Z", "latitude": 59.84985172403967, "city": "Oslo"}, {"zip_code": "0 470", "address": "Nyg\u00e5rdplassen 31", "longitude": 10.71219549280995, "id": 80, "created": "2015-02-02T17:34:13.216554Z", "latitude": 59.990235342924414, "city": "Oslo"}, {"zip_code": "0 155", "address": "Jenssenvollen 52", "longitude": 10.717638820871256, "id": 81, "created": "2015-02-06T17:30:40.216554Z", "latitude": 59.861416376026554, "city": "Oslo"}, {"zip_code": "0 247", "address": "Gundersenstien 8", "longitude": 10.676468659842971, "id": 82, "created": "2015-01-23T17:24:12.216554Z", "latitude": 59.80184757691651, "city": "Oslo"}, {"zip_code": "0 268", "address": "Hellandstykket 26", "longitude": 10.703251189137205, "id": 83, "created": "2015-01-12T17:29:53.216554Z", "latitude": 59.939291580561374, "city": "Oslo"}, {"zip_code": "0 746", "address": "Ruudlunden 06", "longitude": 10.854630608443937, "id": 84, "created": "2015-01-10T17:30:46.216554Z", "latitude": 59.85131764726736, "city": "Oslo"}, {"zip_code": "0 224", "address": "Solbergtoppen 85", "longitude": 10.946993947404446, "id": 85, "created": "2015-01-14T17:47:10.216554Z", "latitude": 59.94957092227743, "city": "Oslo"}, {"zip_code": "0 939", "address": "Iversenlia 67", "longitude": 10.773052421562396, "id": 86, "created": "2015-01-14T17:54:11.216554Z", "latitude": 60.04801135006404, "city": "Oslo"}, {"zip_code": "0  24", "address": "Andersenlyngen 5", "longitude": 10.892143610101884, "id": 87, "created": "2015-01-12T16:55:02.216554Z", "latitude": 59.93459455157889, "city": "Oslo"}, {"zip_code": "0 806", "address": "Brekketoppen 9", "longitude": 10.827049699305238, "id": 88, "created": "2015-01-30T17:16:29.216554Z", "latitude": 60.02432029146386, "city": "Oslo"}, {"zip_code": "0  13", "address": "Rasmussenhaugen 3", "longitude": 10.677176246975657, "id": 89, "created": "2015-02-01T17:12:09.216554Z", "latitude": 59.86792286495675, "city": "Oslo"}, {"zip_code": "01263", "address": "Martinsenlunden 67", "longitude": 10.6710121700745, "id": 90, "created": "2015-01-14T17:30:03.216554Z", "latitude": 59.92601895681585, "city": "Oslo"}, {"zip_code": "0 359", "address": "Olsenr\u00f8a 7", "longitude": 10.933842702591921, "id": 91, "created": "2015-01-27T17:47:33.216554Z", "latitude": 60.0352546522836, "city": "Oslo"}, {"zip_code": "01145", "address": "Eriksentoppen 7", "longitude": 10.758262524146428, "id": 92, "created": "2015-01-25T17:36:55.216554Z", "latitude": 59.894793192036076, "city": "Oslo"}, {"zip_code": "0 733", "address": "Aunestubben 0", "longitude": 10.697653747229081, "id": 93, "created": "2015-01-25T17:37:31.216554Z", "latitude": 59.961626766178604, "city": "Oslo"}, {"zip_code": "0 219", "address": "Andresenlyngen 8", "longitude": 10.696521261805488, "id": 94, "created": "2015-02-05T17:21:02.216554Z", "latitude": 59.80705242740843, "city": "Oslo"}, {"zip_code": "0 419", "address": "Andersenflata 54", "longitude": 10.76905771931371, "id": 95, "created": "2015-01-12T17:25:04.216554Z", "latitude": 59.822995095385515, "city": "Oslo"}, {"zip_code": "0 145", "address": "Birkelandeggen 2", "longitude": 10.77596317098991, "id": 96, "created": "2015-01-28T17:28:05.216554Z", "latitude": 59.92290157096111, "city": "Oslo"}, {"zip_code": "01064", "address": "Hagenstien 66", "longitude": 10.806960431981375, "id": 97, "created": "2015-01-16T17:14:55.216554Z", "latitude": 60.02590089678714, "city": "Oslo"}, {"zip_code": "0 123", "address": "Str\u00f8mholtet 63", "longitude": 10.756317606743021, "id": 98, "created": "2015-01-17T17:52:01.216554Z", "latitude": 60.01767509120992, "city": "Oslo"}, {"zip_code": "0 848", "address": "Alimyra 72", "longitude": 10.894476707456471, "id": 99, "created": "2015-01-18T17:50:31.216554Z", "latitude": 59.89833133582406, "city": "Oslo"}, {"zip_code": "0 793", "address": "Bakkeeggen 0", "longitude": 10.660159284255254, "id": 100, "created": "2015-01-13T17:52:42.216554Z", "latitude": 59.82873590347389, "city": "Oslo"}]